{
  "type": "FeatureCollection",
  "features": [
    {
      "type": "Feature",
      "properties": {
        "name": "Estados Unidos",
        "type": "Clique aqui para acessar mapas interativos dos Estados Unidos",
        "countryPage": "usa.html",
        "location": "Situado na América do Norte, os Estados Unidos ocupam uma vasta extensão de terra que se estende do Oceano Atlântico, a leste, até o Oceano Pacífico, a oeste. Faz fronteira com o Canadá ao norte e com o México ao sul. O território americano é caracterizado por uma geografia diversificada que inclui montanhas, planícies, desertos e áreas costeiras.",
        "facts": "Fundado em 1776, após a independência das Treze Colônias do domínio britânico, os Estados Unidos consolidaram-se como uma das maiores potências econômicas e militares do mundo. Ao longo dos séculos XIX e XX, o país expandiu suas fronteiras e teve papel central em eventos históricos, como as duas Guerras Mundiais e a Guerra Fria. Os Estados Unidos são conhecidos pela defesa dos princípios de democracia e liberdade, além de serem um polo global de inovação tecnológica, cultura popular e ciência, influenciando diversos aspectos da sociedade moderna.",
        "imageCaption": "O Capitólio dos Estados Unidos em Washington, D.C.",
        "imageUrl": "https://upload.wikimedia.org/wikipedia/commons/a/a3/United_States_Capitol_west_front_edit2.jpg",
        "imageSource": "Imagem de Architect of the Capitol sob CC BY 2.0",
        "source": "Artigo da Wikipédia sobre os Estados Unidos",
        "sourceUrl": "https://en.wikipedia.org/wiki/United_States"
      },
      "geometry": {
        "type": "Point",
        "coordinates": [
          -77.0369,
          38.9072
        ]
      }
    },
    {
      "type": "Feature",
      "properties": {
        "name": "Reino Unido",
        "type": "Clique aqui para acessar mapas interativos do Reino Unido.",
        "location": "Localizado na Europa Ocidental, o Reino Unido é uma união de quatro nações constituintes: Inglaterra, Escócia, País de Gales e Irlanda do Norte. Situado em uma ilha maior e várias ilhas menores, o país é cercado pelos mares do Norte e da Irlanda, e pelo Oceano Atlântico.",
        "facts": "Oficialmente estabelecido em 1707, o Reino Unido desempenhou um papel fundamental na Revolução Industrial, transformando-se em uma potência econômica e militar. Com o maior império da história, a influência britânica moldou culturas e sistemas políticos ao redor do globo. No século XX, o Reino Unido reavaliou seu papel mundial, mas mantém-se influente em diplomacia, cultura e economia. O país é conhecido por sua monarquia e instituições culturais importantes, como o Parlamento britânico.",
        "imageCaption": "O Tâmisa e a Ponte da Torre em Londres.",
        "imageUrl": "https://upload.wikimedia.org/wikipedia/commons/6/67/London_Skyline_%28125508655%29.jpeg",
        "imageSource": "Imagem de Ilya Grigorik sob CC BY-SA 3.0",
        "source": "Artigo da Wikipédia sobre o Reino Unido",
        "sourceUrl": "https://en.wikipedia.org/wiki/United_Kingdom"
      },
      "geometry": {
        "type": "Point",
        "coordinates": [
          -0.1276,
          51.5074
        ]
      }
    },
    {
      "type": "Feature",
      "properties": {
        "name": "França",
        "type": "Clique aqui para acessar mapas interativos da França.",
        "location": "No oeste da Europa, a França compartilha fronteiras com vários países, incluindo Bélgica, Alemanha, Suíça e Espanha. Sua geografia variada inclui regiões montanhosas, como os Alpes e os Pireneus, além de vastas planícies agrícolas e longas faixas costeiras no Mediterrâneo e no Atlântico.",
        "facts": "A França desempenhou papel central na história europeia e global, com eventos como a Revolução Francesa de 1789, que influenciaram ideais democráticos e de direitos humanos em todo o mundo. O país foi uma das maiores potências coloniais, com presença significativa na África, Ásia e América. Atualmente, a França é conhecida por sua cultura, gastronomia e artes, além de ser um dos países líderes da União Europeia e uma das economias mais desenvolvidas do mundo.",
        "imageCaption": "A Torre Eiffel em Paris, símbolo da França.",
        "imageUrl": "https://upload.wikimedia.org/wikipedia/commons/5/53/Eiffel_tower_from_trocadero.jpg",
        "imageSource": "Imagem de NonOmnisMoriar sob CC BY-SA 3.0",
        "source": "Artigo da Wikipédia sobre a França",
        "sourceUrl": "https://en.wikipedia.org/wiki/France"
      },
      "geometry": {
        "type": "Point",
        "coordinates": [
          2.2137,
          46.6034
        ]
      }
    },
    {
      "type": "Feature",
      "properties": {
        "name": "Japão",
        "type": "Clique aqui para acessar mapas interativos do Japão.",
        "location": "Situado no leste da Ásia, o Japão é um arquipélago composto por quatro ilhas principais – Honshu, Hokkaido, Kyushu e Shikoku – e várias ilhas menores. O território japonês é conhecido por sua geografia montanhosa, vulcões ativos e belezas naturais, como o Monte Fuji.",
        "facts": "O Japão é uma das civilizações mais antigas em continuidade, com uma rica herança cultural. Após um longo período de isolamento, o país iniciou uma modernização acelerada na Restauração Meiji em 1868, tornando-se uma potência militar e econômica. No século XX, o Japão superou os desafios da Segunda Guerra Mundial e transformou-se em uma nação tecnologicamente avançada e culturalmente influente, famosa pela sua indústria de entretenimento, inovação e tradições preservadas.",
        "imageCaption": "Horizonte de Tóquio com o Monte Fuji ao fundo.",
        "imageUrl": "https://upload.wikimedia.org/wikipedia/commons/thumb/d/dc/Skyscrapers_of_Shinjuku_2009_January_%28revised%29.jpg/800px-Skyscrapers_of_Shinjuku_2009_January_%28revised%29.jpg?20111002070431",
        "imageSource": "Imagem de M. R. sob CC BY-SA 4.0",
        "source": "Artigo da Wikipédia sobre o Japão",
        "sourceUrl": "https://en.wikipedia.org/wiki/Japan"
      },
      "geometry": {
        "type": "Point",
        "coordinates": [
          139.6917,
          35.6895
        ]
      }
    },
    {
      "type": "Feature",
      "properties": {
        "name": "China",
        "type": "Clique aqui para acessar mapas interativos da China.",
        "countryPage": "china.html",
        "location": "A China é o terceiro maior país do mundo, localizada no leste da Ásia, com paisagens que variam desde os desertos no oeste até planícies férteis e regiões montanhosas no leste e sul.",
        "facts": "A China possui uma das civilizações mais antigas do mundo, com contribuições marcantes para a filosofia, ciência e artes. No século XX, tornou-se a República Popular da China após a Revolução Comunista, e desde então é uma potência influente. Com rápido crescimento econômico nas últimas décadas, a China possui grande relevância econômica e política global, além de um vasto patrimônio cultural.",
        "imageCaption": "A Cidade Proibida em Pequim.",
        "imageUrl": "https://upload.wikimedia.org/wikipedia/commons/thumb/a/a7/Forbidden_City_Beijing_Shenwumen_Gate.JPG/1280px-Forbidden_City_Beijing_Shenwumen_Gate.JPG",
        "imageSource": "Imagem de Kallgan sob CC BY-SA 4.0",
        "source": "Artigo da Wikipédia sobre a China",
        "sourceUrl": "https://en.wikipedia.org/wiki/China"
      },
      "geometry": {
        "type": "Point",
        "coordinates": [
          116.4074,
          39.9042
        ]
      }
    },
    {
      "type": "Feature",
      "properties": {
        "name": "Rússia",
        "type": "Clique aqui para acessar mapas interativos da Rússia.",
        "countryPage": "russia.html",
        "location": "A Rússia, maior país do mundo em extensão territorial, situa-se entre a Europa e a Ásia, abrangendo paisagens diversas, como tundras, montanhas, florestas e estepes. Suas fronteiras se estendem do Mar Báltico e da Europa Oriental até o Oceano Pacífico e o Extremo Oriente.",
        "facts": "Com uma história que remonta aos povos eslavos e às antigas cidades-estado de Novgorod e Kiev, a Rússia tornou-se um dos maiores impérios da era moderna. No século XX, emergiu como a União Soviética, desempenhando um papel central na política global durante a Guerra Fria. Após o colapso da União Soviética em 1991, a Rússia passou por profundas transformações políticas, econômicas e sociais. Hoje, mantém influência global e destaca-se por sua cultura rica, que inclui uma tradição literária, artística e científica que moldou o mundo.",
        "imageCaption": "A Catedral de São Basílio em Moscou.",
        "imageUrl": "https://upload.wikimedia.org/wikipedia/commons/0/00/Moscow_6.20.2013_by_Anita_Mishra.JPG",
        "imageSource": "Imagem de Anita Mishra sob CC BY-SA 3.0",
        "source": "Artigo da Wikipédia sobre a Rússia",
        "sourceUrl": "https://en.wikipedia.org/wiki/Russia"
      },
      "geometry": {
        "type": "Point",
        "coordinates": [
          37.6173,
          55.7558
        ]
      }
    },
    {
      "type": "Feature",
      "properties": {
        "name": "Brasil",
        "type": "Clique aqui para acessar mapas interativos do Brasil.",
        "countryPage": "brasil.html",
        "location": "Localizado na América do Sul, o Brasil é o maior país do continente, abrangendo uma diversidade geográfica rica, com a Amazônia, vastos sistemas fluviais, serras e um longo litoral atlântico.",
        "facts": "Descoberto por portugueses em 1500, o Brasil conquistou sua independência em 1822. Desde então, desenvolveu uma sociedade multicultural influenciada por indígenas, africanos e europeus. Hoje, o Brasil é uma potência regional com economia diversificada e rica herança cultural. Seus biomas, como a Amazônia, têm papel fundamental na biodiversidade global e no combate às mudanças climáticas.",
        "imageCaption": "O Cristo Redentor no Rio de Janeiro.",
        "imageUrl": "https://upload.wikimedia.org/wikipedia/commons/5/59/Cristo_Redentor_R%C3%ADo_de_Janeiro.jpg",
        "imageSource": "Imagem de Artyominc sob CC BY-SA 4.0",
        "source": "Artigo da Wikipédia sobre o Brasil",
        "sourceUrl": "https://en.wikipedia.org/wiki/Brazil"
      },
      "geometry": {
        "type": "Point",
        "coordinates": [
          -47.9292,
          -15.7801
        ]
      }
    },
    {
      "type": "Feature",
      "properties": {
        "name": "Alemanha",
        "countryPage": "alemanha.html",
        "type": "Clique aqui para acessar mapas interativos da Alemanha.",
        "location": "Localizada na Europa Central, a Alemanha é conhecida por sua história rica, paisagens diversificadas e papel central na União Europeia.",
        "facts": "Unificada em 1871, a Alemanha desempenhou um papel crucial nos acontecimentos do século XX, incluindo as Guerras Mundiais e a Guerra Fria. Hoje, é uma potência econômica global e líder em tecnologia, inovação e sustentabilidade.",
        "imageCaption": "Portão de Brandemburgo em Berlim.",
        "imageUrl": "https://upload.wikimedia.org/wikipedia/commons/2/2b/Berlin_Brandenburger_Tor_Abend.jpg",
        "imageSource": "Imagem de Pedelecs sob CC BY-SA 3.0",
        "source": "Artigo da Wikipédia sobre a Alemanha",
        "sourceUrl": "https://en.wikipedia.org/wiki/Germany"
      },
      "geometry": {
        "type": "Point",
        "coordinates": [
          10.4515,
          51.1657
        ]
      }
    },
    {
      "type": "Feature",
      "properties": {
        "name": "Império Otomano",
        "countryPage": "russia.html",
        "type": "Clique aqui para acessar mapas interativos do Império Otomano.",
        "location": "Extendendo-se pela Europa, Ásia e África, o Império Otomano foi um dos maiores e mais influentes impérios da história, com capital em Constantinopla (atual Istambul).",
        "facts": "Fundado no final do século XIII, o Império Otomano atingiu seu auge nos séculos XVI e XVII, influenciando profundamente a política, a economia e a cultura das regiões que controlava. O império caiu após a Primeira Guerra Mundial, dando lugar à República da Turquia em 1923.",
        "imageCaption": "Interior da Mesquita Süleymaniye, a maior mesquita de Istambul.",
        "imageUrl": "https://upload.wikimedia.org/wikipedia/commons/7/76/S%C3%BCleymaniye_mosque_interior_Istanbul_Turkey.jpg",
        "imageSource": "Imagem de Takeaway sob CC BY-SA 3.0",
        "source": "Artigo da Wikipédia sobre o Império Otomano",
        "sourceUrl": "https://en.wikipedia.org/wiki/Ottoman_Empire"
      },
      "geometry": {
        "type": "Point",
        "coordinates": [
          28.9784,
          41.0082
        ]
      }
    }     
  ]
}
